[{"OBJECT_NAME":"ONEWEB-0375","OBJECT_ID":"2021-090Y","EPOCH":"2026-04-01T12:14:07.692864","MEAN_MOTION":13.20772128,"ECCENTRICITY":0.0001187,"INCLINATION":87.9145,"RA_OF_ASC_NODE":289.7432,"ARG_OF_PERICENTER":97.4392,"MEAN_ANOMALY":262.6876,"EPHEMERIS_TYPE":0,"CLASSIFICATION_TYPE":"U","NORAD_CAT_ID":49301,"ELEMENT_SET_NO":999,"REV_AT_EPOCH":22040,"BSTAR":-4.0133e-5,"MEAN_MOTION_DOT":-3.0e-8,"MEAN_MOTION_DDOT":0},{"OBJECT_NAME":"ONEWEB-0376","OBJECT_ID":"2021-090Z","EPOCH":"2026-04-01T09:15:38.873376","MEAN_MOTION":13.19724992,"ECCENTRICITY":0.0001925,"INCLINATION":87.9203,"RA_OF_ASC_NODE":320.2728,"ARG_OF_PERICENTER":85.1289,"MEAN_ANOMALY":275.0063,"EPHEMERIS_TYPE":0,"CLASSIFICATION_TYPE":"U","NORAD_CAT_ID":49302,"ELEMENT_SET_NO":999,"REV_AT_EPOCH":21632,"BSTAR":-0.00039958,"MEAN_MOTION_DOT":-1.47e-6,"MEAN_MOTION_DDOT":0},{"OBJECT_NAME":"ONEWEB-0377","OBJECT_ID":"2021-090AA","EPOCH":"2026-04-01T06:26:36.763584","MEAN_MOTION":13.2077097,"ECCENTRICITY":0.0001565,"INCLINATION":87.9142,"RA_OF_ASC_NODE":289.7928,"ARG_OF_PERICENTER":83.1658,"MEAN_ANOMALY":276.9653,"EPHEMERIS_TYPE":0,"CLASSIFICATION_TYPE":"U","NORAD_CAT_ID":49303,"ELEMENT_SET_NO":999,"REV_AT_EPOCH":22036,"BSTAR":0.00023688,"MEAN_MOTION_DOT":1.09e-6,"MEAN_MOTION_DDOT":0},{"OBJECT_NAME":"ONEWEB-0378","OBJECT_ID":"2021-090AB","EPOCH":"2026-04-01T12:25:40.728864","MEAN_MOTION":13.20771774,"ECCENTRICITY":0.0001618,"INCLINATION":87.9138,"RA_OF_ASC_NODE":289.7523,"ARG_OF_PERICENTER":92.4611,"MEAN_ANOMALY":267.6707,"EPHEMERIS_TYPE":0,"CLASSIFICATION_TYPE":"U","NORAD_CAT_ID":49304,"ELEMENT_SET_NO":999,"REV_AT_EPOCH":21966,"BSTAR":-6.5857e-5,"MEAN_MOTION_DOT":-1.4e-7,"MEAN_MOTION_DDOT":0},{"OBJECT_NAME":"ONEWEB-0379","OBJECT_ID":"2021-090AC","EPOCH":"2026-04-01T01:59:10.303296","MEAN_MOTION":13.14503396,"ECCENTRICITY":0.0001601,"INCLINATION":87.895,"RA_OF_ASC_NODE":305.0978,"ARG_OF_PERICENTER":90.6154,"MEAN_ANOMALY":269.5159,"EPHEMERIS_TYPE":0,"CLASSIFICATION_TYPE":"U","NORAD_CAT_ID":49305,"ELEMENT_SET_NO":999,"REV_AT_EPOCH":21743,"BSTAR":-0.0011746,"MEAN_MOTION_DOT":-4.23e-6,"MEAN_MOTION_DDOT":0},{"OBJECT_NAME":"ONEWEB-0380","OBJECT_ID":"2021-090AD","EPOCH":"2026-04-01T03:43:34.406112","MEAN_MOTION":13.19726392,"ECCENTRICITY":0.0001472,"INCLINATION":87.9191,"RA_OF_ASC_NODE":320.3317,"ARG_OF_PERICENTER":79.2643,"MEAN_ANOMALY":280.8655,"EPHEMERIS_TYPE":0,"CLASSIFICATION_TYPE":"U","NORAD_CAT_ID":49306,"ELEMENT_SET_NO":999,"REV_AT_EPOCH":21626,"BSTAR":9.1523e-5,"MEAN_MOTION_DOT":5.0e-7,"MEAN_MOTION_DDOT":0},{"OBJECT_NAME":"ONEWEB-0381","OBJECT_ID":"2021-090AE","EPOCH":"2026-04-01T06:21:51.697152","MEAN_MOTION":13.20771543,"ECCENTRICITY":0.0001464,"INCLINATION":87.9143,"RA_OF_ASC_NODE":289.7977,"ARG_OF_PERICENTER":94.3674,"MEAN_ANOMALY":265.7627,"EPHEMERIS_TYPE":0,"CLASSIFICATION_TYPE":"U","NORAD_CAT_ID":49307,"ELEMENT_SET_NO":999,"REV_AT_EPOCH":21967,"BSTAR":0.00022711,"MEAN_MOTION_DOT":1.05e-6,"MEAN_MOTION_DDOT":0},{"OBJECT_NAME":"ONEWEB-0382","OBJECT_ID":"2021-090AF","EPOCH":"2026-04-01T02:25:29.853408","MEAN_MOTION":13.20771168,"ECCENTRICITY":0.0001507,"INCLINATION":87.9142,"RA_OF_ASC_NODE":289.8265,"ARG_OF_PERICENTER":98.0996,"MEAN_ANOMALY":262.0308,"EPHEMERIS_TYPE":0,"CLASSIFICATION_TYPE":"U","NORAD_CAT_ID":49308,"ELEMENT_SET_NO":999,"REV_AT_EPOCH":21964,"BSTAR":0.00020636,"MEAN_MOTION_DOT":9.7e-7,"MEAN_MOTION_DDOT":0},{"OBJECT_NAME":"ONEWEB-0383","OBJECT_ID":"2021-090AG","EPOCH":"2026-04-01T12:47:42.029376","MEAN_MOTION":13.1450386,"ECCENTRICITY":0.0001631,"INCLINATION":87.8949,"RA_OF_ASC_NODE":304.994,"ARG_OF_PERICENTER":92.4563,"MEAN_ANOMALY":267.6753,"EPHEMERIS_TYPE":0,"CLASSIFICATION_TYPE":"U","NORAD_CAT_ID":49309,"ELEMENT_SET_NO":999,"REV_AT_EPOCH":21752,"BSTAR":-0.00042961,"MEAN_MOTION_DOT":-1.46e-6,"MEAN_MOTION_DDOT":0},{"OBJECT_NAME":"ONEWEB-0384","OBJECT_ID":"2021-090AH","EPOCH":"2026-04-01T02:12:07.244064","MEAN_MOTION":13.20808931,"ECCENTRICITY":0.0001543,"INCLINATION":87.9144,"RA_OF_ASC_NODE":289.8715,"ARG_OF_PERICENTER":107.4381,"MEAN_ANOMALY":252.6921,"EPHEMERIS_TYPE":0,"CLASSIFICATION_TYPE":"U","NORAD_CAT_ID":49310,"ELEMENT_SET_NO":999,"REV_AT_EPOCH":21965,"BSTAR":8.7639e-5,"MEAN_MOTION_DOT":4.9e-7,"MEAN_MOTION_DDOT":0},{"OBJECT_NAME":"ONEWEB-0385","OBJECT_ID":"2021-090AJ","EPOCH":"2026-04-01T11:19:34.713120","MEAN_MOTION":13.2077317,"ECCENTRICITY":0.0001566,"INCLINATION":87.9142,"RA_OF_ASC_NODE":289.7572,"ARG_OF_PERICENTER":94.7844,"MEAN_ANOMALY":265.3468,"EPHEMERIS_TYPE":0,"CLASSIFICATION_TYPE":"U","NORAD_CAT_ID":49311,"ELEMENT_SET_NO":999,"REV_AT_EPOCH":21967,"BSTAR":9.4842e-5,"MEAN_MOTION_DOT":5.2e-7,"MEAN_MOTION_DDOT":0},{"OBJECT_NAME":"ONEWEB-0386","OBJECT_ID":"2021-090AK","EPOCH":"2026-04-01T06:17:18.547008","MEAN_MOTION":13.20772711,"ECCENTRICITY":0.0001576,"INCLINATION":87.9151,"RA_OF_ASC_NODE":289.7846,"ARG_OF_PERICENTER":98.503,"MEAN_ANOMALY":261.6282,"EPHEMERIS_TYPE":0,"CLASSIFICATION_TYPE":"U","NORAD_CAT_ID":49312,"ELEMENT_SET_NO":999,"REV_AT_EPOCH":21966,"BSTAR":0.00018596,"MEAN_MOTION_DOT":8.9e-7,"MEAN_MOTION_DDOT":0},{"OBJECT_NAME":"ONEWEB-0387","OBJECT_ID":"2021-090AL","EPOCH":"2026-04-01T11:21:51.149952","MEAN_MOTION":13.20771556,"ECCENTRICITY":0.0001362,"INCLINATION":87.9131,"RA_OF_ASC_NODE":289.7768,"ARG_OF_PERICENTER":86.5648,"MEAN_ANOMALY":273.5641,"EPHEMERIS_TYPE":0,"CLASSIFICATION_TYPE":"U","NORAD_CAT_ID":49313,"ELEMENT_SET_NO":999,"REV_AT_EPOCH":21969,"BSTAR":8.9226e-5,"MEAN_MOTION_DOT":4.9e-7,"MEAN_MOTION_DDOT":0},{"OBJECT_NAME":"ONEWEB-0388","OBJECT_ID":"2021-090AM","EPOCH":"2026-04-01T03:36:44.997984","MEAN_MOTION":13.1972617,"ECCENTRICITY":0.000164,"INCLINATION":87.9192,"RA_OF_ASC_NODE":320.3296,"ARG_OF_PERICENTER":87.2482,"MEAN_ANOMALY":272.8839,"EPHEMERIS_TYPE":0,"CLASSIFICATION_TYPE":"U","NORAD_CAT_ID":49314,"ELEMENT_SET_NO":999,"REV_AT_EPOCH":21625,"BSTAR":0.0002201,"MEAN_MOTION_DOT":1.01e-6,"MEAN_MOTION_DDOT":0},{"OBJECT_NAME":"ONEWEB-0389","OBJECT_ID":"2021-132A","EPOCH":"2026-04-01T12:04:34.279392","MEAN_MOTION":13.1764986,"ECCENTRICITY":0.0001452,"INCLINATION":87.9181,"RA_OF_ASC_NODE":21.0976,"ARG_OF_PERICENTER":78.7735,"MEAN_ANOMALY":281.3559,"EPHEMERIS_TYPE":0,"CLASSIFICATION_TYPE":"U","NORAD_CAT_ID":50469,"ELEMENT_SET_NO":999,"REV_AT_EPOCH":20798,"BSTAR":-0.0002839,"MEAN_MOTION_DOT":-9.7e-7,"MEAN_MOTION_DDOT":0},{"OBJECT_NAME":"ONEWEB-0390","OBJECT_ID":"2021-132B","EPOCH":"2026-04-01T12:07:01.339968","MEAN_MOTION":13.17650114,"ECCENTRICITY":0.0001904,"INCLINATION":87.9181,"RA_OF_ASC_NODE":21.0977,"ARG_OF_PERICENTER":71.9541,"MEAN_ANOMALY":288.1798,"EPHEMERIS_TYPE":0,"CLASSIFICATION_TYPE":"U","NORAD_CAT_ID":50470,"ELEMENT_SET_NO":999,"REV_AT_EPOCH":20798,"BSTAR":0.00037042,"MEAN_MOTION_DOT":1.57e-6,"MEAN_MOTION_DDOT":0},{"OBJECT_NAME":"ONEWEB-0391","OBJECT_ID":"2021-132C","EPOCH":"2026-04-01T12:09:25.805952","MEAN_MOTION":13.17650202,"ECCENTRICITY":0.0001149,"INCLINATION":87.9183,"RA_OF_ASC_NODE":21.1064,"ARG_OF_PERICENTER":59.1695,"MEAN_ANOMALY":300.9549,"EPHEMERIS_TYPE":0,"CLASSIFICATION_TYPE":"U","NORAD_CAT_ID":50471,"ELEMENT_SET_NO":999,"REV_AT_EPOCH":20798,"BSTAR":-0.0002574,"MEAN_MOTION_DOT":-8.7e-7,"MEAN_MOTION_DDOT":0}]
