ONEWEB-0375             
1 49301U 21090Y   26091.50981126 -.00000003  00000+0 -40133-4 0  9998
2 49301  87.9145 289.7432 0001187  97.4392 262.6876 13.20772128220407
ONEWEB-0376             
1 49302U 21090Z   26091.38586659 -.00000147  00000+0 -39958-3 0  9998
2 49302  87.9203 320.2728 0001925  85.1289 275.0063 13.19724992216327
ONEWEB-0377             
1 49303U 21090AA  26091.26848106  .00000109  00000+0  23688-3 0  9993
2 49303  87.9142 289.7928 0001565  83.1658 276.9653 13.20770970220362
ONEWEB-0378             
1 49304U 21090AB  26091.51783251 -.00000014  00000+0 -65857-4 0  9993
2 49304  87.9138 289.7523 0001618  92.4611 267.6707 13.20771774219661
ONEWEB-0379             
1 49305U 21090AC  26091.08275814 -.00000423  00000+0 -11746-2 0  9997
2 49305  87.8950 305.0978 0001601  90.6154 269.5159 13.14503396217434
ONEWEB-0380             
1 49306U 21090AD  26091.15525933  .00000050  00000+0  91523-4 0  9993
2 49306  87.9191 320.3317 0001472  79.2643 280.8655 13.19726392216267
ONEWEB-0381             
1 49307U 21090AE  26091.26518168  .00000105  00000+0  22711-3 0  9991
2 49307  87.9143 289.7977 0001464  94.3674 265.7627 13.20771543219677
ONEWEB-0382             
1 49308U 21090AF  26091.10103997  .00000097  00000+0  20636-3 0  9999
2 49308  87.9142 289.8265 0001507  98.0996 262.0308 13.20771168219640
ONEWEB-0383             
1 49309U 21090AG  26091.53312534 -.00000146  00000+0 -42961-3 0  9998
2 49309  87.8949 304.9940 0001631  92.4563 267.6753 13.14503860217525
ONEWEB-0384             
1 49310U 21090AH  26091.09175051  .00000049  00000+0  87639-4 0  9994
2 49310  87.9144 289.8715 0001543 107.4381 252.6921 13.20808931219654
ONEWEB-0385             
1 49311U 21090AJ  26091.47192955  .00000052  00000+0  94842-4 0  9997
2 49311  87.9142 289.7572 0001566  94.7844 265.3468 13.20773170219675
ONEWEB-0386             
1 49312U 21090AK  26091.26202022  .00000089  00000+0  18596-3 0  9993
2 49312  87.9151 289.7846 0001576  98.5030 261.6282 13.20772711219662
ONEWEB-0387             
1 49313U 21090AL  26091.47350868  .00000049  00000+0  89226-4 0  9994
2 49313  87.9131 289.7768 0001362  86.5648 273.5641 13.20771556219699
ONEWEB-0388             
1 49314U 21090AM  26091.15052081  .00000101  00000+0  22010-3 0  9992
2 49314  87.9192 320.3296 0001640  87.2482 272.8839 13.19726170216258
ONEWEB-0389             
1 50469U 21132A   26091.50317453 -.00000097  00000+0 -28390-3 0  9991
2 50469  87.9181  21.0976 0001452  78.7735 281.3559 13.17649860207988
ONEWEB-0390             
1 50470U 21132B   26091.50487662  .00000157  00000+0  37042-3 0  9992
2 50470  87.9181  21.0977 0001904  71.9541 288.1798 13.17650114207987
ONEWEB-0391             
1 50471U 21132C   26091.50654868 -.00000087  00000+0 -25740-3 0  9993
2 50471  87.9183  21.1064 0001149  59.1695 300.9549 13.17650202207982
